{
  "norad_id": 66762,
  "name": "HYDROGNSS-1",
  "history": [
    {
      "epoch": "2026-03-28T22:00:01.999584",
      "apogee_km": 529.5655249143192,
      "perigee_km": 516.5262919035131,
      "latitude_deg": -22.540771710635866,
      "longitude_deg": -135.7977782401722,
      "semi_major_axis_km": 6901.182908408916,
      "eccentricity": 0.00094471,
      "inclination_deg": 97.4243,
      "raan_deg": 162.7299,
      "arg_perigee_deg": 247.9318,
      "mean_anomaly_deg": 192.1911,
      "mean_motion_rev_day": 15.14319291
    },
    {
      "epoch": "2026-03-29T04:00:01.999584",
      "apogee_km": 529.6672496523524,
      "perigee_km": 516.5796992885662,
      "latitude_deg": 76.7587264308893,
      "longitude_deg": -111.79777824017219,
      "semi_major_axis_km": 6901.260474470459,
      "eccentricity": 0.0009482,
      "inclination_deg": 97.4242,
      "raan_deg": 162.974,
      "arg_perigee_deg": 247.918,
      "mean_anomaly_deg": 114.2167,
      "mean_motion_rev_day": 15.14293761
    }
  ]
}